WNISAT 1R               
1 42835U 17042L   26068.86192839  .00004802  00000+0  37840-3 0  9992
2 42835  97.4515 228.7079 0013301 131.3338 228.9034 15.01153186471607
STARLINK-36197          
1 67205U 25304P   26068.72507699  .00008721  00000+0  73768-3 0  9992
2 67205  70.0023 174.2194 0003728 271.5540  88.5192 14.98335798 13864
